*******************************************************************************
JPL/HORIZONS               293 Brasilia (A890 KA)          2023-Sep-04 11:05:30
Rec #:     293 (+COV) Soln.date: 2023-Aug-23_04:02:49   # obs: 5851 (1909-2023)
 
IAU76/J2000 helio. ecliptic osc. elements (au, days, deg., period=Julian yrs):
 
  EPOCH=  2457314.5 ! 2015-Oct-19.00 (TDB)         Residual RMS= .25448
   EC= .107098390758866    QR= 2.55371263709685    TP= 2457070.8338381648
   OM= 61.31758016758715   W=  86.86969399255959   IN= 15.58316954510808
   A= 2.860015718044476    MA= 49.65313411770767   ADIST= 3.166318798992101
   PER= 4.83683            N= .203775254           ANGMOM= .028924147
   DAN= 2.81077            DDN= 2.84384            L= 148.0680691
   B= 15.5593289           MOID= 1.62331998        TP= 2015-Feb-17.3338381648
 
Asteroid physical parameters (km, seconds, rotational period in hours):
   GM= n.a.                RAD= 28.743             ROTPER= 8.173
   H= 10.28                G= .150                 B-V= .721
                           ALBEDO= .056            STYP= CX

ASTEROID comments: 
1: soln ref.= JPL#60, OCC=0
2: source=ORB
*******************************************************************************


*******************************************************************************
Ephemeris / API_USER Mon Sep  4 11:05:30 2023 Pasadena, USA      / Horizons
*******************************************************************************
Target body name: 293 Brasilia (A890 KA)          {source: JPL#60}
Center body name: Solar System Barycenter (0)     {source: DE441}
Center-site name: BODY CENTER
*******************************************************************************
Start time      : A.D. 2023-Aug-12 00:00:00.0000 TDB
Stop  time      : A.D. 2023-Aug-13 00:00:00.0000 TDB
Step-size       : 2880 minutes
*******************************************************************************
Center geodetic : 0.0, 0.0, 0.0                   {E-lon(deg),Lat(deg),Alt(km)}
Center cylindric: 0.0, 0.0, 0.0                   {E-lon(deg),Dxy(km),Dz(km)}
Center radii    : (undefined)
Small perturbers: Yes                             {source: SB441-N16}
Output units    : KM-S
Calendar mode   : Mixed Julian/Gregorian
Output type     : GEOMETRIC cartesian states
Output format   : 2 (position and velocity)
Reference frame : Ecliptic of J2000.0
*******************************************************************************
Initial IAU76/J2000 heliocentric ecliptic osculating elements (au, days, deg.):
  EPOCH=  2457314.5 ! 2015-Oct-19.00 (TDB)         Residual RMS= .25448        
   EC= .107098390758866    QR= 2.55371263709685    TP= 2457070.8338381648      
   OM= 61.31758016758715   W=  86.86969399255959   IN= 15.58316954510808       
  Equivalent ICRF heliocentric cartesian coordinates (au, au/d):
   X=-2.320800017032941E+00  Y=-1.337673265064556E+00  Z=-1.487439907199503E-01
  VX= 3.955234103872594E-03 VY=-8.095344261786045E-03 VZ=-5.996072185933055E-03
Asteroid physical parameters (km, seconds, rotational period in hours):        
   GM= n.a.                RAD= 28.743             ROTPER= 8.173               
   H= 10.28                G= .150                 B-V= .721                   
                           ALBEDO= .056            STYP= CX                    
*******************************************************************************
JDTDB
   X     Y     Z
   VX    VY    VZ
*******************************************************************************
$$SOE
2460168.500000000 = A.D. 2023-Aug-12 00:00:00.0000 TDB 
 X = 2.899858294417197E+08 Y = 3.192036912102189E+08 Z =-2.799269120204908E+07
 VX=-1.333926743779030E+01 VY= 1.015636676023109E+01 VZ= 4.636492405901507E+00
$$EOE
*******************************************************************************
 
TIME

  Barycentric Dynamical Time ("TDB" or T_eph) output was requested. This
continuous coordinate time is equivalent to the relativistic proper time
of a clock at rest in a reference frame co-moving with the solar system
barycenter but outside the system's gravity well. It is the independent
variable in the solar system relativistic equations of motion.

  TDB runs at a uniform rate of one SI second per second and is independent
of irregularities in Earth's rotation.
 
CALENDAR SYSTEM

  Mixed calendar mode was active such that calendar dates after AD 1582-Oct-15
(if any) are in the modern Gregorian system. Dates prior to 1582-Oct-5 (if any)
are in the Julian calendar system, which is automatically extended for dates
prior to its adoption on 45-Jan-1 BC.  The Julian calendar is useful for
matching historical dates. The Gregorian calendar more accurately corresponds
to the Earth's orbital motion and seasons. A "Gregorian-only" calendar mode is
available if such physical events are the primary interest.

REFERENCE FRAME AND COORDINATES

  Ecliptic at the standard reference epoch

    Reference epoch: J2000.0
    X-Y plane: adopted Earth orbital plane at the reference epoch
               Note: IAU76 obliquity of 84381.448 arcseconds wrt ICRF X-Y plane
    X-axis   : ICRF
    Z-axis   : perpendicular to the X-Y plane in the directional (+ or -) sense
               of Earth's north pole at the reference epoch.

  Symbol meaning:

    JDTDB    Julian Day Number, Barycentric Dynamical Time
      X      X-component of position vector (km)
      Y      Y-component of position vector (km)
      Z      Z-component of position vector (km)
      VX     X-component of velocity vector (km/sec)                           
      VY     Y-component of velocity vector (km/sec)                           
      VZ     Z-component of velocity vector (km/sec)                           

ABERRATIONS AND CORRECTIONS

 Geometric state vectors have NO corrections or aberrations applied.

Computations by ...

    Solar System Dynamics Group, Horizons On-Line Ephemeris System
    4800 Oak Grove Drive, Jet Propulsion Laboratory
    Pasadena, CA  91109   USA

    General site: https://ssd.jpl.nasa.gov/
    Mailing list: https://ssd.jpl.nasa.gov/email_list.html
    System news : https://ssd.jpl.nasa.gov/horizons/news.html
    User Guide  : https://ssd.jpl.nasa.gov/horizons/manual.html
    Connect     : browser        https://ssd.jpl.nasa.gov/horizons/app.html#/x
                  API            https://ssd-api.jpl.nasa.gov/doc/horizons.html
                  command-line   telnet ssd.jpl.nasa.gov 6775
                  e-mail/batch   https://ssd.jpl.nasa.gov/ftp/ssd/hrzn_batch.txt
                  scripts        https://ssd.jpl.nasa.gov/ftp/ssd/SCRIPTS
    Author      : Jon.D.Giorgini@jpl.nasa.gov
*******************************************************************************
